{
  "type": "FeatureCollection",
  "features": [
    {
      "type": "Feature",
      "properties": {
        "norad_id": 66399,
        "name": "STARLINK-35657",
        "group": "last-30-days",
        "lat": -35.89235357451566,
        "lon": 160.4511252114922,
        "alt_km": 423.2576100725273,
        "timestamp": "2025-12-03T13:52:08.344789+00:00",
        "meta_object_name": "STARLINK-35657",
        "meta_object_id": "2025-257V",
        "meta_epoch": "2025-12-03T06:42:01.952928",
        "meta_mean_motion": 15.49330447,
        "meta_eccentricity": 0.00013107,
        "meta_inclination": 53.1589,
        "meta_ra_of_asc_node": 309.0206,
        "meta_arg_of_pericenter": 98.9847,
        "meta_mean_anomaly": 261.1311,
        "meta_ephemeris_type": 0,
        "meta_classification_type": "U",
        "meta_norad_cat_id": 66399,
        "meta_element_set_no": 999,
        "meta_rev_at_epoch": 491,
        "meta_bstar": 0.0014262294,
        "meta_mean_motion_dot": 0.00079747,
        "meta_mean_motion_ddot": 0,
        "tle_line1": "1 66399U 25257V   25337.27918927  .00079747  00000+0  14262-2 0  9999",
        "tle_line2": "2 66399  53.1589 309.0206 0001310  98.9847 261.1311 15.49330447  4915"
      },
      "geometry": {
        "type": "Point",
        "coordinates": [
          160.4511252114922,
          -35.89235357451566
        ]
      }
    },
    {
      "type": "Feature",
      "properties": {
        "norad_id": 66400,
        "name": "STARLINK-35667",
        "group": "last-30-days",
        "lat": -38.411084489070895,
        "lon": 164.05889378182002,
        "alt_km": 423.6696683131977,
        "timestamp": "2025-12-03T13:52:08.344799+00:00",
        "meta_object_name": "STARLINK-35667",
        "meta_object_id": "2025-257W",
        "meta_epoch": "2025-12-03T06:41:02.697216",
        "meta_mean_motion": 15.49331241,
        "meta_eccentricity": 0.00015384,
        "meta_inclination": 53.1589,
        "meta_ra_of_asc_node": 309.0152,
        "meta_arg_of_pericenter": 86.2161,
        "meta_mean_anomaly": 273.9024,
        "meta_ephemeris_type": 0,
        "meta_classification_type": "U",
        "meta_norad_cat_id": 66400,
        "meta_element_set_no": 999,
        "meta_rev_at_epoch": 491,
        "meta_bstar": 0.0015848169,
        "meta_mean_motion_dot": 0.0008877,
        "meta_mean_motion_ddot": 0,
        "tle_line1": "1 66400U 25257W   25337.27850344  .00088770  00000+0  15848-2 0  9997",
        "tle_line2": "2 66400  53.1589 309.0152 0001538  86.2161 273.9024 15.49331241  4914"
      },
      "geometry": {
        "type": "Point",
        "coordinates": [
          164.05889378182002,
          -38.411084489070895
        ]
      }
    },
    {
      "type": "Feature",
      "properties": {
        "norad_id": 66401,
        "name": "STARLINK-35668",
        "group": "last-30-days",
        "lat": -39.626341636821266,
        "lon": 165.95598630092798,
        "alt_km": 423.48708229486147,
        "timestamp": "2025-12-03T13:52:08.344810+00:00",
        "meta_object_name": "STARLINK-35668",
        "meta_object_id": "2025-257X",
        "meta_epoch": "2025-12-03T06:40:32.871936",
        "meta_mean_motion": 15.49327237,
        "meta_eccentricity": 0.0001059,
        "meta_inclination": 53.159,
        "meta_ra_of_asc_node": 309.0131,
        "meta_arg_of_pericenter": 84.5963,
        "meta_mean_anomaly": 275.5167,
        "meta_ephemeris_type": 0,
        "meta_classification_type": "U",
        "meta_norad_cat_id": 66401,
        "meta_element_set_no": 999,
        "meta_rev_at_epoch": 491,
        "meta_bstar": 0.0017157705,
        "meta_mean_motion_dot": 0.00096221,
        "meta_mean_motion_ddot": 0,
        "tle_line1": "1 66401U 25257X   25337.27815824  .00096221  00000+0  17158-2 0  9998",
        "tle_line2": "2 66401  53.1590 309.0131 0001059  84.5963 275.5167 15.49327237  4919"
      },
      "geometry": {
        "type": "Point",
        "coordinates": [
          165.95598630092798,
          -39.626341636821266
        ]
      }
    },
    {
      "type": "Feature",
      "properties": {
        "norad_id": 66402,
        "name": "STARLINK-35644",
        "group": "last-30-days",
        "lat": -37.16362392993098,
        "lon": 162.2221545129904,
        "alt_km": 423.45672637073403,
        "timestamp": "2025-12-03T13:52:08.344820+00:00",
        "meta_object_name": "STARLINK-35644",
        "meta_object_id": "2025-257Y",
        "meta_epoch": "2025-12-03T06:41:32.314272",
        "meta_mean_motion": 15.4932973,
        "meta_eccentricity": 0.00012954,
        "meta_inclination": 53.1589,
        "meta_ra_of_asc_node": 309.0178,
        "meta_arg_of_pericenter": 87.1391,
        "meta_mean_anomaly": 272.9766,
        "meta_ephemeris_type": 0,
        "meta_classification_type": "U",
        "meta_norad_cat_id": 66402,
        "meta_element_set_no": 999,
        "meta_rev_at_epoch": 491,
        "meta_bstar": 0.0015595369,
        "meta_mean_motion_dot": 0.00087326,
        "meta_mean_motion_ddot": 0,
        "tle_line1": "1 66402U 25257Y   25337.27884623  .00087326  00000+0  15595-2 0  9991",
        "tle_line2": "2 66402  53.1589 309.0178 0001295  87.1391 272.9766 15.49329730  4911"
      },
      "geometry": {
        "type": "Point",
        "coordinates": [
          162.2221545129904,
          -37.16362392993098
        ]
      }
    },
    {
      "type": "Feature",
      "properties": {
        "norad_id": 66403,
        "name": "STARLINK-35602",
        "group": "last-30-days",
        "lat": -40.810385628273316,
        "lon": 167.92210926561265,
        "alt_km": 423.7042418039482,
        "timestamp": "2025-12-03T13:52:08.344830+00:00",
        "meta_object_name": "STARLINK-35602",
        "meta_object_id": "2025-257Z",
        "meta_epoch": "2025-12-03T06:40:03.261792",
        "meta_mean_motion": 15.49328881,
        "meta_eccentricity": 0.00014692,
        "meta_inclination": 53.1587,
        "meta_ra_of_asc_node": 309.0108,
        "meta_arg_of_pericenter": 96.1322,
        "meta_mean_anomaly": 263.9855,
        "meta_ephemeris_type": 0,
        "meta_classification_type": "U",
        "meta_norad_cat_id": 66403,
        "meta_element_set_no": 999,
        "meta_rev_at_epoch": 491,
        "meta_bstar": 0.0013365457,
        "meta_mean_motion_dot": 0.00074651,
        "meta_mean_motion_ddot": 0,
        "tle_line1": "1 66403U 25257Z   25337.27781553  .00074651  00000+0  13365-2 0  9990",
        "tle_line2": "2 66403  53.1587 309.0108 0001469  96.1322 263.9855 15.49328881  4915"
      },
      "geometry": {
        "type": "Point",
        "coordinates": [
          167.92210926561265,
          -40.810385628273316
        ]
      }
    },
    {
      "type": "Feature",
      "properties": {
        "norad_id": 66404,
        "name": "STARLINK-35691",
        "group": "last-30-days",
        "lat": -41.962588974219756,
        "lon": 169.96266889825816,
        "alt_km": 423.6536049620572,
        "timestamp": "2025-12-03T13:52:08.344840+00:00",
        "meta_object_name": "STARLINK-35691",
        "meta_object_id": "2025-257AA",
        "meta_epoch": "2025-12-03T06:39:33.585984",
        "meta_mean_motion": 15.49331954,
        "meta_eccentricity": 0.00013141,
        "meta_inclination": 53.1588,
        "meta_ra_of_asc_node": 309.0079,
        "meta_arg_of_pericenter": 96.6456,
        "meta_mean_anomaly": 263.4703,
        "meta_ephemeris_type": 0,
        "meta_classification_type": "U",
        "meta_norad_cat_id": 66404,
        "meta_element_set_no": 999,
        "meta_rev_at_epoch": 491,
        "meta_bstar": 0.0015970494,
        "meta_mean_motion_dot": 0.00089469,
        "meta_mean_motion_ddot": 0,
        "tle_line1": "1 66404U 25257AA  25337.27747206  .00089469  00000+0  15970-2 0  9995",
        "tle_line2": "2 66404  53.1588 309.0079 0001314  96.6456 263.4703 15.49331954  4918"
      },
      "geometry": {
        "type": "Point",
        "coordinates": [
          169.96266889825816,
          -41.962588974219756
        ]
      }
    },
    {
      "type": "Feature",
      "properties": {
        "norad_id": 66405,
        "name": "STARLINK-35683",
        "group": "last-30-days",
        "lat": -43.07231165454543,
        "lon": 172.06826885254537,
        "alt_km": 423.6209608382069,
        "timestamp": "2025-12-03T13:52:08.344852+00:00",
        "meta_object_name": "STARLINK-35683",
        "meta_object_id": "2025-257AB",
        "meta_epoch": "2025-12-03T08:11:57.372864",
        "meta_mean_motion": 15.49340298,
        "meta_eccentricity": 0.00012602,
        "meta_inclination": 53.1587,
        "meta_ra_of_asc_node": 308.6966,
        "meta_arg_of_pericenter": 101.9781,
        "meta_mean_anomaly": 258.1369,
        "meta_ephemeris_type": 0,
        "meta_classification_type": "U",
        "meta_norad_cat_id": 66405,
        "meta_element_set_no": 999,
        "meta_rev_at_epoch": 485,
        "meta_bstar": 0.0019166469,
        "meta_mean_motion_dot": 0.00107748,
        "meta_mean_motion_ddot": 0,
        "tle_line1": "1 66405U 25257AB  25337.34163626  .00107748  00000+0  19166-2 0  9994",
        "tle_line2": "2 66405  53.1587 308.6966 0001260 101.9781 258.1369 15.49340298  4852"
      },
      "geometry": {
        "type": "Point",
        "coordinates": [
          172.06826885254537,
          -43.07231165454543
        ]
      }
    }
  ]
}